0 COSMOS 2251 DEB
1 34542U 93036UC  13282.60593079  .00005874  00000-0  15081-2 0  9838
2 34542 074.0320 085.9248 0030566 261.5141 218.7751 14.50174734242816
0 COSMOS 2251 DEB
1 34542U 93036UC  13286.60863016  .00005971  00000-0  15315-2 0  9853
2 34542 074.0312 078.4031 0030654 253.4443 235.2376 14.50213558243396
0 COSMOS 2251 DEB
1 34542U 93036UC  13288.81543845  .00008231  00000-0  21063-2 0  9863
2 34542 074.0315 074.2560 0030714 249.0920 236.2595 14.50244702243713
0 COSMOS 2251 DEB
1 34542U 93036UC  13291.14643654  .00007787  00000-0  19919-2 0  9875
2 34542 074.0324 069.8756 0030703 244.5134 165.8855 14.50276927244053
0 COSMOS 2251 DEB
1 34542U 93036UC  13293.14765837  .00007826  00000-0  20008-2 0  9881
2 34542 074.0329 066.1151 0030731 240.6247 173.9970 14.50303229244346
0 COSMOS 2251 DEB
1 34542U 93036UC  13295.14952736  .00009370  00000-0  23921-2 0  9893
2 34542 074.0329 062.3531 0030743 236.7347 185.6879 14.50329080244639
